[{"OBJECT_NAME":"STARLINK-2467","OBJECT_ID":"2021-027AL","EPOCH":"2026-03-08T14:56:22.855200","MEAN_MOTION":15.06694969,"ECCENTRICITY":0.00012157,"INCLINATION":53.0543,"RA_OF_ASC_NODE":156.4086,"ARG_OF_PERICENTER":141.8553,"MEAN_ANOMALY":218.2522,"EPHEMERIS_TYPE":0,"CLASSIFICATION_TYPE":"U","NORAD_CAT_ID":48126,"ELEMENT_SET_NO":999,"REV_AT_EPOCH":27254,"BSTAR":0.0044912039,"MEAN_MOTION_DOT":0.000678,"MEAN_MOTION_DDOT":0},{"OBJECT_NAME":"MINOTAUR 4 R\/B","OBJECT_ID":"2020-046E","EPOCH":"2026-03-09T23:21:28.488960","MEAN_MOTION":15.06543892,"ECCENTRICITY":0.00095926,"INCLINATION":53.9792,"RA_OF_ASC_NODE":306.0413,"ARG_OF_PERICENTER":86.078,"MEAN_ANOMALY":274.1318,"EPHEMERIS_TYPE":0,"CLASSIFICATION_TYPE":"U","NORAD_CAT_ID":45877,"ELEMENT_SET_NO":999,"REV_AT_EPOCH":23396,"BSTAR":0.00016618262,"MEAN_MOTION_DOT":2.204e-5,"MEAN_MOTION_DDOT":0}]
